{
    "links": {
        "self": "http://www.neowsapp.com/rest/v1/neo/54016510?api_key=iIulBulltgU6a56xZRHN4H3l9WmuAYTsLGpBGhQ2"
    },
    "id": "54016510",
    "neo_reference_id": "54016510",
    "name": "(2020 GQ2)",
    "designation": "2020 GQ2",
    "nasa_jpl_url": "http://ssd.jpl.nasa.gov/sbdb.cgi?sstr=54016510",
    "absolute_magnitude_h": 18.308,
    "estimated_diameter": {
        "kilometers": {
            "estimated_diameter_min": 0.5793686301,
            "estimated_diameter_max": 1.2955076408
        },
        "meters": {
            "estimated_diameter_min": 579.368630055,
            "estimated_diameter_max": 1295.5076408339
        },
        "miles": {
            "estimated_diameter_min": 0.360002865,
            "estimated_diameter_max": 0.8049908783
        },
        "feet": {
            "estimated_diameter_min": 1900.8157762296,
            "estimated_diameter_max": 4250.3532883534
        }
    },
    "is_potentially_hazardous_asteroid": false,
    "close_approach_data": [
        {
            "close_approach_date": "2028-05-12",
            "close_approach_date_full": "2028-May-12 14:37",
            "epoch_date_close_approach": 1841755020000,
            "relative_velocity": {
                "kilometers_per_second": "13.9197151632",
                "kilometers_per_hour": "50110.9745876158",
                "miles_per_hour": "31137.0108486216"
            },
            "miss_distance": {
                "astronomical": "0.4888472228",
                "lunar": "190.1615696692",
                "kilometers": "73130503.286295436",
                "miles": "45441187.6062355768"
            },
            "orbiting_body": "Earth"
        },
        {
            "close_approach_date": "2032-05-08",
            "close_approach_date_full": "2032-May-08 01:04",
            "epoch_date_close_approach": 1967591040000,
            "relative_velocity": {
                "kilometers_per_second": "14.9630217234",
                "kilometers_per_hour": "53866.8782042569",
                "miles_per_hour": "33470.783293084"
            },
            "miss_distance": {
                "astronomical": "0.2310831636",
                "lunar": "89.8913506404",
                "kilometers": "34569549.067421532",
                "miles": "21480521.7254678616"
            },
            "orbiting_body": "Earth"
        }
    ],
    "orbital_data": {
        "orbit_id": "8",
        "orbit_determination_date": "2020-06-10 05:54:31",
        "first_observation_date": "2020-04-11",
        "last_observation_date": "2020-06-10",
        "data_arc_in_days": 60,
        "observations_used": 66,
        "orbit_uncertainty": "6",
        "minimum_orbit_intersection": ".228742",
        "jupiter_tisserand_invariant": "3.156",
        "epoch_osculation": "2459000.5",
        "eccentricity": ".5221825851275179",
        "semi_major_axis": "2.487820313427222",
        "inclination": "25.53885797133712",
        "ascending_node_longitude": "38.81972579614258",
        "orbital_period": "1433.266470600099",
        "perihelion_distance": "1.188723870829043",
        "perihelion_argument": "213.1780121592061",
        "aphelion_distance": "3.7869167560254",
        "perihelion_time": "2459084.699820366563",
        "mean_anomaly": "338.8511515801584",
        "mean_motion": ".2511745075912299",
        "equinox": "J2000",
        "orbit_class": {
            "orbit_class_type": "AMO",
            "orbit_class_description": "Near-Earth asteroid orbits similar to that of 1221 Amor",
            "orbit_class_range": "1.017 AU < q (perihelion) < 1.3 AU"
        }
    },
    "is_sentry_object": false
}